{"type":"FeatureCollection","features":[{"type":"Feature","properties":{"kind":"line","line":"orange","name":"Ligne 2 - Orange","color":"#D95700"},"geometry":{"type":"LineString","coordinates":[[-73.68276,45.51424],[-73.6748,45.50926],[-73.66154,45.50005],[-73.65283,45.49464],[-73.63826,45.49464],[-73.6331,45.49236],[-73.62773,45.48543],[-73.61982,45.47971],[-73.60371,45.4741],[-73.58663,45.47732],[-73.58018,45.48251],[-73.57685,45.4889],[-73.57107,45.49474],[-73.56724,45.49809],[-73.56312,45.50194],[-73.55955,45.50635],[-73.5566,45.51005],[-73.56105,45.51521],[-73.56922,45.51906],[-73.58196,45.52493],[-73.58691,45.5274],[-73.59778,45.53173],[-73.60469,45.53535],[-73.6139,45.53906],[-73.62876,45.54319],[-73.63905,45.54608],[-73.65602,45.55076],[-73.66817,45.55528],[-73.68231,45.56],[-73.70939,45.5607],[-73.72246,45.55844]]}},{"type":"Feature","properties":{"kind":"station","line":"orange","name":"STATION CÔTE-VERTU"},"geometry":{"type":"Point","coordinates":[-73.68277,45.51424]}},{"type":"Feature","properties":{"kind":"station","line":"orange","name":"STATION DU COLLÈGE"},"geometry":{"type":"Point","coordinates":[-73.67328,45.50836]}},{"type":"Feature","properties":{"kind":"station","line":"orange","name":"STATION DE LA SAVANE"},"geometry":{"type":"Point","coordinates":[-73.66154,45.50033]}},{"type":"Feature","properties":{"kind":"station","line":"orange","name":"STATION NAMUR"},"geometry":{"type":"Point","coordinates":[-73.65275,45.49464]}},{"type":"Feature","properties":{"kind":"station","line":"orange","name":"STATION PLAMONDON"},"geometry":{"type":"Point","coordinates":[-73.63817,45.49461]}},{"type":"Feature","properties":{"kind":"station","line":"orange","name":"STATION CÔTE-STE-CATHERINE"},"geometry":{"type":"Point","coordinates":[-73.63315,45.49236]}},{"type":"Feature","properties":{"kind":"station","line":"orange","name":"STATION SNOWDON"},"geometry":{"type":"Point","coordinates":[-73.62781,45.48524]}},{"type":"Feature","properties":{"kind":"station","line":"orange","name":"STATION VILLA-MARIA"},"geometry":{"type":"Point","coordinates":[-73.61979,45.47956]}},{"type":"Feature","properties":{"kind":"station","line":"orange","name":"STATION VENDÔME"},"geometry":{"type":"Point","coordinates":[-73.60386,45.47386]}},{"type":"Feature","properties":{"kind":"station","line":"orange","name":"STATION PLACE ST-HENRI"},"geometry":{"type":"Point","coordinates":[-73.58642,45.47736]}},{"type":"Feature","properties":{"kind":"station","line":"orange","name":"STATION LIONEL-GROULX"},"geometry":{"type":"Point","coordinates":[-73.57972,45.48282]}},{"type":"Feature","properties":{"kind":"station","line":"orange","name":"STATION GEORGES-VANIER"},"geometry":{"type":"Point","coordinates":[-73.57644,45.48896]}},{"type":"Feature","properties":{"kind":"station","line":"orange","name":"STATION LUCIEN-L'ALLIER"},"geometry":{"type":"Point","coordinates":[-73.57121,45.49481]}},{"type":"Feature","properties":{"kind":"station","line":"orange","name":"STATION BONAVENTURE"},"geometry":{"type":"Point","coordinates":[-73.56713,45.49805]}},{"type":"Feature","properties":{"kind":"station","line":"orange","name":"STATION SQUARE VICTORIA-OACI"},"geometry":{"type":"Point","coordinates":[-73.56319,45.50187]}},{"type":"Feature","properties":{"kind":"station","line":"orange","name":"STATION PLACE D'ARMES"},"geometry":{"type":"Point","coordinates":[-73.55951,45.50628]}},{"type":"Feature","properties":{"kind":"station","line":"orange","name":"STATION CHAMPS DE MARS"},"geometry":{"type":"Point","coordinates":[-73.55646,45.51003]}},{"type":"Feature","properties":{"kind":"station","line":"orange","name":"STATION BERRI-UQAM"},"geometry":{"type":"Point","coordinates":[-73.56011,45.51485]}},{"type":"Feature","properties":{"kind":"station","line":"orange","name":"STATION SHERBROOKE"},"geometry":{"type":"Point","coordinates":[-73.56826,45.51841]}},{"type":"Feature","properties":{"kind":"station","line":"orange","name":"STATION MONT-ROYAL"},"geometry":{"type":"Point","coordinates":[-73.58223,45.52472]}},{"type":"Feature","properties":{"kind":"station","line":"orange","name":"STATION LAURIER"},"geometry":{"type":"Point","coordinates":[-73.58686,45.52739]}},{"type":"Feature","properties":{"kind":"station","line":"orange","name":"STATION ROSEMONT"},"geometry":{"type":"Point","coordinates":[-73.59849,45.53102]}},{"type":"Feature","properties":{"kind":"station","line":"orange","name":"STATION BEAUBIEN"},"geometry":{"type":"Point","coordinates":[-73.6044,45.53524]}},{"type":"Feature","properties":{"kind":"station","line":"orange","name":"STATION JEAN-TALON"},"geometry":{"type":"Point","coordinates":[-73.61381,45.53907]}},{"type":"Feature","properties":{"kind":"station","line":"orange","name":"STATION JARRY"},"geometry":{"type":"Point","coordinates":[-73.62867,45.54344]}},{"type":"Feature","properties":{"kind":"station","line":"orange","name":"STATION CRÉMAZIE"},"geometry":{"type":"Point","coordinates":[-73.63887,45.54597]}},{"type":"Feature","properties":{"kind":"station","line":"orange","name":"STATION SAUVÉ"},"geometry":{"type":"Point","coordinates":[-73.65593,45.55082]}},{"type":"Feature","properties":{"kind":"station","line":"orange","name":"STATION HENRI-BOURASSA"},"geometry":{"type":"Point","coordinates":[-73.6682,45.55522]}},{"type":"Feature","properties":{"kind":"station","line":"orange","name":"STATION CARTIER"},"geometry":{"type":"Point","coordinates":[-73.68172,45.5604]}},{"type":"Feature","properties":{"kind":"station","line":"orange","name":"STATION DE LA CONCORDE"},"geometry":{"type":"Point","coordinates":[-73.70934,45.56054]}},{"type":"Feature","properties":{"kind":"station","line":"orange","name":"STATION MONTMORENCY"},"geometry":{"type":"Point","coordinates":[-73.72242,45.55843]}},{"type":"Feature","properties":{"kind":"line","line":"green","name":"Ligne 1 - Verte","color":"#00B300"},"geometry":{"type":"LineString","coordinates":[[-73.60312,45.44647],[-73.59324,45.45116],[-73.58169,45.45701],[-73.57202,45.45944],[-73.56707,45.46189],[-73.56627,45.47106],[-73.56934,45.47846],[-73.58018,45.48251],[-73.58581,45.49007],[-73.57931,45.49557],[-73.57472,45.50088],[-73.57159,45.50406],[-73.56843,45.50822],[-73.5649,45.51103],[-73.56108,45.51523],[-73.55584,45.51883],[-73.5527,45.52399],[-73.5522,45.5335],[-73.55419,45.54172],[-73.55139,45.54683],[-73.55176,45.55369],[-73.54753,45.56069],[-73.54734,45.56928],[-73.54671,45.57684],[-73.54313,45.58274],[-73.53927,45.58943],[-73.53538,45.59657]]}},{"type":"Feature","properties":{"kind":"station","line":"green","name":"STATION ANGRIGNON"},"geometry":{"type":"Point","coordinates":[-73.60329,45.4464]}},{"type":"Feature","properties":{"kind":"station","line":"green","name":"STATION MONK"},"geometry":{"type":"Point","coordinates":[-73.59327,45.45117]}},{"type":"Feature","properties":{"kind":"station","line":"green","name":"STATION JOLICOEUR"},"geometry":{"type":"Point","coordinates":[-73.58199,45.45678]}},{"type":"Feature","properties":{"kind":"station","line":"green","name":"STATION VERDUN"},"geometry":{"type":"Point","coordinates":[-73.57165,45.45943]}},{"type":"Feature","properties":{"kind":"station","line":"green","name":"STATION DE L'ÉGLISE"},"geometry":{"type":"Point","coordinates":[-73.56711,45.46191]}},{"type":"Feature","properties":{"kind":"station","line":"green","name":"STATION LASALLE"},"geometry":{"type":"Point","coordinates":[-73.56628,45.47063]}},{"type":"Feature","properties":{"kind":"station","line":"green","name":"STATION CHARLEVOIX"},"geometry":{"type":"Point","coordinates":[-73.56937,45.47847]}},{"type":"Feature","properties":{"kind":"station","line":"green","name":"STATION LIONEL-GROULX"},"geometry":{"type":"Point","coordinates":[-73.57972,45.48282]}},{"type":"Feature","properties":{"kind":"station","line":"green","name":"STATION ATWATER"},"geometry":{"type":"Point","coordinates":[-73.58573,45.49004]}},{"type":"Feature","properties":{"kind":"station","line":"green","name":"STATION GUY-CONCORDIA"},"geometry":{"type":"Point","coordinates":[-73.57925,45.49569]}},{"type":"Feature","properties":{"kind":"station","line":"green","name":"STATION PEEL"},"geometry":{"type":"Point","coordinates":[-73.57471,45.50089]}},{"type":"Feature","properties":{"kind":"station","line":"green","name":"STATION MCGILL"},"geometry":{"type":"Point","coordinates":[-73.57179,45.50414]}},{"type":"Feature","properties":{"kind":"station","line":"green","name":"STATION PLACE DES ARTS"},"geometry":{"type":"Point","coordinates":[-73.56831,45.50817]}},{"type":"Feature","properties":{"kind":"station","line":"green","name":"STATION ST-LAURENT"},"geometry":{"type":"Point","coordinates":[-73.56534,45.51059]}},{"type":"Feature","properties":{"kind":"station","line":"green","name":"STATION BERRI-UQAM"},"geometry":{"type":"Point","coordinates":[-73.56011,45.51485]}},{"type":"Feature","properties":{"kind":"station","line":"green","name":"STATION BEAUDRY"},"geometry":{"type":"Point","coordinates":[-73.55591,45.51897]}},{"type":"Feature","properties":{"kind":"station","line":"green","name":"STATION PAPINEAU"},"geometry":{"type":"Point","coordinates":[-73.55207,45.52372]}},{"type":"Feature","properties":{"kind":"station","line":"green","name":"STATION FRONTENAC"},"geometry":{"type":"Point","coordinates":[-73.55216,45.53313]}},{"type":"Feature","properties":{"kind":"station","line":"green","name":"STATION PRÉFONTAINE"},"geometry":{"type":"Point","coordinates":[-73.55454,45.54177]}},{"type":"Feature","properties":{"kind":"station","line":"green","name":"STATION JOLIETTE"},"geometry":{"type":"Point","coordinates":[-73.55143,45.54682]}},{"type":"Feature","properties":{"kind":"station","line":"green","name":"STATION PIE IX"},"geometry":{"type":"Point","coordinates":[-73.5517,45.55366]}},{"type":"Feature","properties":{"kind":"station","line":"green","name":"STATION VIAU"},"geometry":{"type":"Point","coordinates":[-73.54703,45.56098]}},{"type":"Feature","properties":{"kind":"station","line":"green","name":"STATION DE L'ASSOMPTION"},"geometry":{"type":"Point","coordinates":[-73.54685,45.56917]}},{"type":"Feature","properties":{"kind":"station","line":"green","name":"STATION CADILLAC"},"geometry":{"type":"Point","coordinates":[-73.54669,45.57686]}},{"type":"Feature","properties":{"kind":"station","line":"green","name":"STATION LANGELIER"},"geometry":{"type":"Point","coordinates":[-73.5431,45.58278]}},{"type":"Feature","properties":{"kind":"station","line":"green","name":"STATION RADISSON"},"geometry":{"type":"Point","coordinates":[-73.53975,45.58961]}},{"type":"Feature","properties":{"kind":"station","line":"green","name":"STATION HONORÉ-BEAUGRAND"},"geometry":{"type":"Point","coordinates":[-73.53505,45.59649]}},{"type":"Feature","properties":{"kind":"line","line":"blue","name":"Ligne 5 - Bleue","color":"#0095E6"},"geometry":{"type":"LineString","coordinates":[[-73.62776,45.4854],[-73.62339,45.49685],[-73.6177,45.50319],[-73.61286,45.50992],[-73.61498,45.52037],[-73.62326,45.52346],[-73.62456,45.53018],[-73.61987,45.53544],[-73.61386,45.53915],[-73.60811,45.54675],[-73.60199,45.55362],[-73.6,45.55956]]}},{"type":"Feature","properties":{"kind":"station","line":"blue","name":"STATION SNOWDON"},"geometry":{"type":"Point","coordinates":[-73.62781,45.48524]}},{"type":"Feature","properties":{"kind":"station","line":"blue","name":"STATION CÔTE-DES-NEIGES"},"geometry":{"type":"Point","coordinates":[-73.62339,45.49681]}},{"type":"Feature","properties":{"kind":"station","line":"blue","name":"STATION UNIVERSITÉ DE MONTREAL"},"geometry":{"type":"Point","coordinates":[-73.61848,45.50367]}},{"type":"Feature","properties":{"kind":"station","line":"blue","name":"STATION ÉDOUARD-MONTPETIT"},"geometry":{"type":"Point","coordinates":[-73.61234,45.51022]}},{"type":"Feature","properties":{"kind":"station","line":"blue","name":"STATION OUTREMONT"},"geometry":{"type":"Point","coordinates":[-73.61501,45.52036]}},{"type":"Feature","properties":{"kind":"station","line":"blue","name":"STATION ACADIE"},"geometry":{"type":"Point","coordinates":[-73.62321,45.52347]}},{"type":"Feature","properties":{"kind":"station","line":"blue","name":"STATION  DU PARC"},"geometry":{"type":"Point","coordinates":[-73.62458,45.5302]}},{"type":"Feature","properties":{"kind":"station","line":"blue","name":"STATION DE CASTELNAU"},"geometry":{"type":"Point","coordinates":[-73.61987,45.53548]}},{"type":"Feature","properties":{"kind":"station","line":"blue","name":"STATION JEAN-TALON"},"geometry":{"type":"Point","coordinates":[-73.61381,45.53907]}},{"type":"Feature","properties":{"kind":"station","line":"blue","name":"STATION FABRE"},"geometry":{"type":"Point","coordinates":[-73.60706,45.54792]}},{"type":"Feature","properties":{"kind":"station","line":"blue","name":"STATION IBERVILLE"},"geometry":{"type":"Point","coordinates":[-73.60204,45.55361]}},{"type":"Feature","properties":{"kind":"station","line":"blue","name":"STATION SAINT-MICHEL"},"geometry":{"type":"Point","coordinates":[-73.60017,45.55971]}},{"type":"Feature","properties":{"kind":"line","line":"yellow","name":"Ligne 4 - Jaune","color":"#FFD900"},"geometry":{"type":"LineString","coordinates":[[-73.5221,45.52489],[-73.53313,45.51243],[-73.56101,45.51519]]}},{"type":"Feature","properties":{"kind":"station","line":"yellow","name":"STATION LONGUEUIL- U. de SHERBROOKE"},"geometry":{"type":"Point","coordinates":[-73.52204,45.52457]}},{"type":"Feature","properties":{"kind":"station","line":"yellow","name":"STATION JEAN-DRAPEAU"},"geometry":{"type":"Point","coordinates":[-73.5327,45.51234]}},{"type":"Feature","properties":{"kind":"station","line":"yellow","name":"STATION BERRI-UQAM"},"geometry":{"type":"Point","coordinates":[-73.56011,45.51485]}}]}